     2.100          NAVIGATION                              RINEX VERSION / TYPE
fic2rin                                 08/26/2014 00:25:04 PGM / RUN BY / DATE
                                                            END OF HEADER
16 14  8 25  6  0  0.0 -.199269503355D-03  .238742359215D-11  .000000000000D+00
     .840000000000D+02  .904062500000D+02  .400802409315D-08 -.205693675826D+01
     .471621751785D-05  .764808140229D-02  .512041151524D-05  .515364536858D+04
     .108000000000D+06  .558793544769D-08  .919901815477D+00 -.502914190292D-07
     .988673276930D+00  .297468750000D+03  .238219501221D+00 -.790782939284D-08
     .358229207399D-09  .100000000000D+01  .180700000000D+04  .000000000000D+00
     .240000000000D+01  .000000000000D+00 -.102445483208D-07  .840000000000D+02
     .100806000000D+06  .400000000000D+01
17 14  8 25  6  0  0.0 -.118990894407D-03 -.272848410532D-11  .000000000000D+00
     .260000000000D+02 -.753750000000D+02  .442589864216D-08 -.296265889646D+01
    -.376626849174D-05  .940844998695D-02  .334903597832D-05  .515363510323D+04
     .108000000000D+06  .465661287308D-07  .195102165024D+01 -.447034835815D-07
     .969357939432D+00  .317906250000D+03 -.209670047501D+01 -.809640867649D-08
    -.264653881039D-09  .100000000000D+01  .180700000000D+04  .000000000000D+00
     .240000000000D+01  .000000000000D+00 -.102445483208D-07  .260000000000D+02
     .100806000000D+06  .400000000000D+01
18 14  8 25  6  0  0.0  .340336002409D-03  .250111042988D-11  .000000000000D+00
     .750000000000D+02  .585625000000D+02  .545272712797D-08 -.144055617537D+01
     .336021184921D-05  .154902408831D-01  .667013227940D-05  .515372299576D+04
     .108000000000D+06  .275671482086D-06 -.229338212021D+01  .221654772758D-06
     .925568756351D+00  .228656250000D+03 -.201367634399D+01 -.846535261592D-08
     .613239829615D-09  .100000000000D+01  .180700000000D+04  .000000000000D+00
     .240000000000D+01  .000000000000D+00 -.107102096081D-07  .750000000000D+02
     .100806000000D+06  .400000000000D+01
19 14  8 25  6  0  0.0 -.475279986858D-03 -.193267624127D-11  .000000000000D+00
     .910000000000D+02 -.788437500000D+02  .448518682603D-08  .247198048873D+01
    -.416673719883D-05  .105963265523D-01  .410154461861D-05  .515364601707D+04
     .108000000000D+06 -.160187482834D-06  .200157290296D+01 -.109896063805D-06
     .966496704273D+00  .305468750000D+03  .491180996163D+00 -.819069831832D-08
    -.323942064916D-09  .100000000000D+01  .180700000000D+04  .000000000000D+00
     .240000000000D+01  .000000000000D+00 -.149011611938D-07  .910000000000D+02
     .100806000000D+06  .400000000000D+01
20 14  8 25  6  0  0.0  .225980300456D-03  .443378667114D-11  .000000000000D+00
     .550000000000D+02  .584375000000D+02  .555666002862D-08 -.931453553522D+00
     .317580997944D-05  .587762228679D-02  .745430588722D-05  .515374032402D+04
     .108000000000D+06 -.111758708954D-07 -.234635347392D+01  .113621354103D-06
     .926678198312D+00  .222687500000D+03  .132613114854D+01 -.862393064990D-08
     .619668668830D-09  .100000000000D+01  .180700000000D+04  .000000000000D+00
     .240000000000D+01  .000000000000D+00 -.791624188423D-08  .550000000000D+02
     .100806000000D+06  .400000000000D+01
21 14  8 25  6  0  0.0 -.380274839699D-03 -.216004991671D-11  .000000000000D+00
     .950000000000D+02 -.465625000000D+02  .490556147918D-08 -.496463982483D+00
    -.228732824326D-05  .215962138027D-01  .111050903797D-04  .515371586800D+04
     .108000000000D+06 -.111758708954D-06  .294556171143D+01  .335276126862D-06
     .933216498544D+00  .157406250000D+03 -.199964385968D+01 -.855964225774D-08
     .917895376884D-10  .100000000000D+01  .180700000000D+04  .000000000000D+00
     .240000000000D+01  .000000000000D+00 -.111758708954D-07  .950000000000D+02
     .100806000000D+06  .400000000000D+01
22 14  8 25  6  0  0.0  .261889770627D-03  .318323145621D-11  .000000000000D+00
     .640000000000D+02  .588437500000D+02  .550487215716D-08 -.199635011426D+01
     .300072133541D-05  .737212109379D-02  .679679214954D-05  .515372489738D+04
     .108000000000D+06  .912696123123D-07 -.229167185340D+01  .242143869400D-07
     .923353422931D+00  .224375000000D+03 -.204739733132D+01 -.846999566646D-08
     .638240871008D-09  .100000000000D+01  .180700000000D+04  .000000000000D+00
     .340000000000D+01  .000000000000D+00 -.172294676304D-07  .640000000000D+02
     .100806000000D+06  .400000000000D+01
23 14  8 25  6  0  0.0 -.471589155495D-04 -.295585778076D-11  .000000000000D+00
     .430000000000D+02 -.399375000000D+02  .528629162384D-08  .206627191794D+01
    -.201724469662D-05  .970303069334D-02  .540725886822D-05  .515373846245D+04
     .108000000000D+06 -.255182385445D-06 -.122540086796D+01  .102445483208D-06
     .950516808292D+00  .273843750000D+03 -.273775966227D+01 -.843427989304D-08
    -.322513433979D-09  .100000000000D+01  .180700000000D+04  .000000000000D+00
     .240000000000D+01  .000000000000D+00 -.200234353542D-07  .430000000000D+02
     .100806000000D+06  .400000000000D+01
24 14  8 25  6  0  0.0 -.340938568115D-04 -.682121026330D-12  .000000000000D+00
     .107000000000D+03  .143750000000D+01  .448518682603D-08  .137106598958D+01
     .212341547012D-06  .214860693086D-02  .119209289551D-04  .515371989059D+04
     .108000000000D+06  .391155481339D-07 -.198585685742D+00  .447034835815D-07
     .956389529074D+00  .145093750000D+03  .278382998375D+00 -.795818863336D-08
    -.346800159904D-09  .100000000000D+01  .180700000000D+04  .000000000000D+00
     .240000000000D+01  .000000000000D+00  .279396772385D-08  .107000000000D+03
     .100806000000D+06  .400000000000D+01
25 14  8 25  6  0  0.0  .230092555285D-04 -.795807864051D-12  .000000000000D+00
     .900000000000D+02  .942187500000D+02  .426982071231D-08 -.682276323365D+00
     .478699803352D-05  .366371625569D-02  .612996518612D-05  .515356461525D+04
     .108000000000D+06  .167638063431D-07  .857857948541D+00  .633299350739D-07
     .976798364190D+00  .269093750000D+03  .728543489252D+00 -.809140846821D-08
     .235366946835D-09  .100000000000D+01  .180700000000D+04  .000000000000D+00
     .340000000000D+01  .000000000000D+00  .558793544769D-08  .900000000000D+02
     .100806000000D+06  .400000000000D+01
26 14  8 25  6  0  0.0 -.316188670695D-04 -.131876731757D-10  .000000000000D+00
     .830000000000D+02 -.459375000000D+02  .458804825348D-08  .203136369797D+01
    -.275298953056D-05  .212178927613D-01  .558048486710D-05  .515368316269D+04
     .108000000000D+06  .124797224998D-06 -.113499933616D+01 -.454485416412D-06
     .973715725157D+00  .278031250000D+03  .129164430457D+01 -.788532845558D-08
    -.367872466222D-09  .100000000000D+01  .180700000000D+04  .000000000000D+00
     .240000000000D+01  .000000000000D+00 -.605359673500D-08  .830000000000D+02
     .100806000000D+06  .400000000000D+01
28 14  8 25  6  0  0.0  .379590783268D-03  .261479726760D-11  .000000000000D+00
     .130000000000D+02  .995312500000D+02  .395123601341D-08 -.216979364955D+01
     .515393912792D-05  .192382648820D-01  .518932938576D-05  .515367519760D+04
     .108000000000D+06  .340864062309D-06  .925582962748D+00  .000000000000D+00
     .987218201555D+00  .293093750000D+03 -.170941882765D+01 -.765389024382D-08
     .335013954676D-09  .100000000000D+01  .180700000000D+04  .000000000000D+00
     .240000000000D+01  .000000000000D+00 -.107102096081D-07  .130000000000D+02
     .100806000000D+06  .400000000000D+01
29 14  8 25  6  0  0.0  .555944629014D-03  .250111042988D-11  .000000000000D+00
     .260000000000D+02 -.686250000000D+02  .447554356721D-08 -.342564277863D+00
    -.350736081600D-05  .123380764853D-02  .328943133354D-05  .515365013123D+04
     .108000000000D+06 -.186264514923D-07  .196016313273D+01 -.968575477600D-07
     .970126018237D+00  .323093750000D+03 -.778400746807D+00 -.825570102594D-08
    -.310012913282D-09  .100000000000D+01  .180700000000D+04  .000000000000D+00
     .240000000000D+01  .000000000000D+00 -.977888703346D-08  .260000000000D+02
     .100806000000D+06  .400000000000D+01
30 14  8 25  6  0  0.0 -.532381236553D-04 -.522959453519D-11  .000000000000D+00
     .990000000000D+02  .252500000000D+02  .430017911972D-08  .464477266977D+00
     .111572444439D-05  .100899056997D-02  .121705234051D-04  .515367444420D+04
     .108000000000D+06 -.130385160446D-07 -.109265617592D+00  .558793544769D-08
     .958718698002D+00  .139968750000D+03  .303442861583D+01 -.784818405122D-08
    -.318941856637D-09  .100000000000D+01  .180700000000D+04  .000000000000D+00
     .340000000000D+01  .000000000000D+00  .325962901115D-08  .990000000000D+02
     .100806000000D+06  .400000000000D+01
31 14  8 25  6  0  0.0  .332401134074D-03 -.341060513165D-12  .000000000000D+00
     .101000000000D+03  .112812500000D+02  .391337729359D-08  .468100578588D+00
     .450760126114D-06  .799244141672D-02  .115949660540D-04  .515361643982D+04
     .108000000000D+06  .540167093277D-07 -.155910934636D+00 -.104308128357D-06
     .978021859633D+00  .167250000000D+03 -.633150513146D+00 -.774067957323D-08
    -.298583865788D-09  .100000000000D+01  .180700000000D+04  .000000000000D+00
     .240000000000D+01  .000000000000D+00 -.130385160446D-07  .101000000000D+03
     .100806000000D+06  .400000000000D+01
32 14  8 25  6  0  0.0 -.355259515345D-03  .852651282912D-11  .000000000000D+00
     .810000000000D+02  .548750000000D+02  .515021452711D-08  .102832129149D+01
     .283867120743D-05  .114144872641D-01  .615976750851D-05  .515366483116D+04
     .108000000000D+06  .156462192535D-06 -.219730163112D+01  .225380063057D-06
     .947393495748D+00  .256781250000D+03 -.107353143324D+00 -.837642034010D-08
     .459304846176D-09  .100000000000D+01  .180700000000D+04  .000000000000D+00
     .240000000000D+01  .000000000000D+00 -.325962901115D-08  .810000000000D+02
     .100806000000D+06  .400000000000D+01
